#aV2020 12  3  0  0  0.00000000     288 DD+AD WGS84 FIT  NGA
## 2134 345600.00000000   300.00000000 59186 0.0000000000000
+   32     1  2  3  4  5  6  7  8  9 10 11 12 13 14 15 16 17
+         18 19 20 21 22 23 24 25 26 27 28 29 30 31 32  0  0
+          0  0  0  0  0  0  0  0  0  0  0  0  0  0  0  0  0
+          0  0  0  0  0  0  0  0  0  0  0  0  0  0  0  0  0
+          0  0  0  0  0  0  0  0  0  0  0  0  0  0  0  0  0
++         2  2  2  2  2  2  2  2  2  2  2  2  2  2  2  2  2
++         2  2  2  2  2  2  2  2  2  2  2  2  2  2  2  0  0
++         0  0  0  0  0  0  0  0  0  0  0  0  0  0  0  0  0
++         0  0  0  0  0  0  0  0  0  0  0  0  0  0  0  0  0
++         0  0  0  0  0  0  0  0  0  0  0  0  0  0  0  0  0
%c cc cc ccc ccc cccc cccc cccc cccc ccccc ccccc ccccc ccccc
%c cc cc ccc ccc cccc cccc cccc cccc ccccc ccccc ccccc ccccc
%f  0.0000000  0.000000000  0.00000000000  0.000000000000000
%f  0.0000000  0.000000000  0.00000000000  0.000000000000000
%i    0    0    0    0      0      0      0      0         0
%i    0    0    0    0      0      0      0      0         0
/*      NGA, ST. LOUIS,MO.                                  
/*   EPHEMERIS COMPUTED FROM 2 DAYS OF DATA                 
/*   EPOCHA v5 SMOOTHER                                     
/*   G1762 IERS2010 SATAF SATAPC                            
*  2020 12  3 21 30  0.00000000
P  1 -18529.505723 -14143.539474 -13275.099613    800.432860                    
V  1  16105.884590   2874.690794 -25689.663598     -0.047273                    
P  2  -3505.728291  15115.119417  22211.363980   -550.149721                    
V  2 -26195.934743  -4896.774587   -835.279644     -0.045394                    
P  3 -12999.724524 -20855.444531  10119.880150    -20.414807                    
V  3  -1270.880374 -13061.576932 -28222.971062     -0.099893                    
P  4 -10010.115899 -11504.178028  21746.711367   -161.115504                    
V  4  20070.215287 -18967.141732   -840.009698     -0.034141                    
P  5   1510.890069  24960.812526   8522.760101    -27.455416                    
V  5  -6144.213145  -9701.225219  29159.145974     -0.009494                    
P  6 -18406.896599   7440.455056  17723.498507     -3.126860                    
V  6 -21289.046313  -6811.422613 -19276.028495     -0.010170                    
P  7 -26058.369397  -6216.023648  -1097.578202   -426.820136                    
V  7  -1010.094359  -3041.214571  31214.117806     -0.074921                    
P  8  -1904.992637 -17622.818931 -19678.079040     -1.600227                    
V  8  18210.636672 -17290.735008  13985.463517     -0.013353                    
P  9 -18705.908678    258.390712  18795.629728   -297.141411                    
V  9  15456.577177 -18453.046901  15563.456564     -0.045564                    
P 10  13566.519866  -6887.812340 -21654.958741     -7.607268                    
V 10   7874.603577  26588.004541  -3765.509568     -0.089179                    
P 11  -9704.118476 -14139.686884 -20676.309863    -91.302751                    
V 11  24611.302511  -6780.351701  -7439.376159      0.105764                    
P 12   9889.402667  23509.158218   7450.130074     31.830319                    
V 12   -156.086425   9955.284088 -30094.460273     -0.051753                    
P 13  -8464.439099  20023.782088 -15314.474983     71.292468                    
V 13 -16321.061255  10358.178765  22878.943678      0.039359                    
P 14 -14707.521476   4048.791498 -21748.806560     52.816061                    
V 14  -6195.856498 -26901.584641   -819.061740      0.126447                    
P 15   5235.790284  17259.287266 -19743.847403   -185.735984                    
V 15 -16434.716040  18294.901469  12215.932337      0.025965                    
P 16   1086.745733 -24920.002467   8195.206471   -245.278529                    
V 16   4475.782280  10189.987761  30034.725671     -0.053855                    
P 17 -21381.282252  14723.680064  -5105.046827    362.319108                    
V 17   3782.848088  -6302.160209 -31379.528370      0.050350                    
P 18  25910.814310   4792.192292  -3578.672641    328.721864                    
V 18   3653.257942   3701.159613  31411.089419      0.041671                    
P 19 -20027.583771  17332.803464    962.299043    -70.046728                    
V 19  -2633.991651   -734.536114 -32227.623081      0.050251                    
P 20  17762.850275   5619.123946 -19091.961994    525.760233                    
V 20   8241.575008  22694.286637  14134.773174     -0.001653                    
P 21 -11550.826509 -15073.352815 -17988.903207     74.255351                    
V 21  24123.748700   2852.897995 -16817.283075      0.036002                    
P 22 -10845.041674 -24269.027507   2050.891331   -720.793835                    
V 22   2462.137664  -3472.757590 -30879.928977      0.057746                    
P 23  16316.868568   4649.916856 -20471.304153    106.920312                    
V 23   6644.995700  25066.693407  10975.657781      0.035545                    
P 24  15509.417473  14954.713852 -16005.295477      5.614397                    
V 24 -19875.149805  -1640.594650 -20702.110297     -0.005073                    
P 25  15762.458934  13047.616890  16836.322674     33.274506                    
V 25   4229.717746  21383.056256 -19973.323613      0.069324                    
P 26   7670.861278 -18093.074944  17712.607866      8.816196                    
V 26   8861.027326  21012.531851  17838.692614      0.059600                    
P 27   9516.500640 -21459.270156 -12224.179143    -27.208393                    
V 27  12309.479397  -9485.922524  26893.247587     -0.081498                    
P 28 -13050.659093   8191.163737 -21085.809463    647.713657                    
V 28  -5443.109391 -27535.823045  -6965.726311     -0.048296                    
P 29  17349.283472   2364.143112  19950.378752   -248.960622                    
V 29 -18429.576912  17403.052218  13894.885672     -0.075065                    
P 30 -24230.200591   1356.570002 -11000.381519   -346.305667                    
V 30 -12641.167411  -6688.116647  26688.357620     -0.064340                    
P 31  16923.963945  -8785.432634  18610.906116    -85.365393                    
V 31  22348.184145   7751.261972 -16143.466607     -0.023773                    
P 32  20622.433965 -15599.513375  -5592.470334      5.489985                    
V 32  -2888.459456   7296.943359 -30688.317234      0.028518                    
EOF
